[
  {
    "COMMENT": "GENERATED VIA SPACETRACK.ORG API",
    "ORIGINATOR": "18 SPCS",
    "NORAD_CAT_ID": "27386",
    "OBJECT_NAME": "ENVISAT",
    "OBJECT_TYPE": "PAYLOAD",
    "CLASSIFICATION_TYPE": "U",
    "INTLDES": "02009A",
    "EPOCH": "2023-06-06 12:15:36",
    "EPOCH_MICROSECONDS": "994176",
    "MEAN_MOTION": "14.3835347",
    "ECCENTRICITY": "0.0001299",
    "INCLINATION": "98.2301",
    "RA_OF_ASC_NODE": "127.952",
    "ARG_OF_PERICENTER": "89.7164",
    "MEAN_ANOMALY": "19.6687",
    "EPHEMERIS_TYPE": "0",
    "ELEMENT_SET_NO": "999",
    "REV_AT_EPOCH": "11435",
    "BSTAR": "0.00008856",
    "MEAN_MOTION_DOT": "0.00000228",
    "MEAN_MOTION_DDOT": "0",
    "FILE": "3926325",
    "TLE_LINE0": "0 ENVISAT",
    "TLE_LINE1": "1 27386U 02009A   23157.51084484  .00000228  00000-0  88560-4 0  9992",
    "TLE_LINE2": "2 27386  98.2301 127.9520 0001299  89.7164  19.6687 14.38353470114352",
    "OBJECT_ID": "2002-009A",
    "OBJECT_NUMBER": "27386",
    "SEMIMAJOR_AXIS": "7142.081",
    "PERIOD": "100.114",
    "APOGEE": "764.874",
    "PERIGEE": "763.018",
    "DECAYED": "0"
  },
  {
    "COMMENT": "GENERATED VIA SPACETRACK.ORG API",
    "ORIGINATOR": "18 SPCS",
    "NORAD_CAT_ID": "27386",
    "OBJECT_NAME": "ENVISAT",
    "OBJECT_TYPE": "PAYLOAD",
    "CLASSIFICATION_TYPE": "U",
    "INTLDES": "02009A",
    "EPOCH": "2023-06-06 12:15:36",
    "EPOCH_MICROSECONDS": "994176",
    "MEAN_MOTION": "14.3835347",
    "ECCENTRICITY": "0.0001299",
    "INCLINATION": "98.2301",
    "RA_OF_ASC_NODE": "127.952",
    "ARG_OF_PERICENTER": "89.7164",
    "MEAN_ANOMALY": "19.6687",
    "EPHEMERIS_TYPE": "0",
    "ELEMENT_SET_NO": "999",
    "REV_AT_EPOCH": "11442",
    "BSTAR": "0.00008856",
    "MEAN_MOTION_DOT": "0.00000228",
    "MEAN_MOTION_DDOT": "0",
    "FILE": "3926461",
    "TLE_LINE0": "0 ENVISAT",
    "TLE_LINE1": "1 27386U 02009A   23157.51084484  .00000228  00000-0  88560-4 0  9992",
    "TLE_LINE2": "2 27386  98.2301 127.9520 0001299  89.7164  19.6687 14.38353470114420",
    "OBJECT_ID": "2002-009A",
    "OBJECT_NUMBER": "27386",
    "SEMIMAJOR_AXIS": "7142.081",
    "PERIOD": "100.114",
    "APOGEE": "764.874",
    "PERIGEE": "763.018",
    "DECAYED": "0"
  },
  {
    "COMMENT": "GENERATED VIA SPACETRACK.ORG API",
    "ORIGINATOR": "18 SPCS",
    "NORAD_CAT_ID": "27386",
    "OBJECT_NAME": "ENVISAT",
    "OBJECT_TYPE": "PAYLOAD",
    "CLASSIFICATION_TYPE": "U",
    "INTLDES": "02009A",
    "EPOCH": "2023-06-06 21:51:30",
    "EPOCH_MICROSECONDS": "703392",
    "MEAN_MOTION": "14.38353755",
    "ECCENTRICITY": "0.0001285",
    "INCLINATION": "98.23",
    "RA_OF_ASC_NODE": "128.3355",
    "ARG_OF_PERICENTER": "89.6275",
    "MEAN_ANOMALY": "289.4065",
    "EPHEMERIS_TYPE": "0",
    "ELEMENT_SET_NO": "999",
    "REV_AT_EPOCH": "11441",
    "BSTAR": "0.000092086",
    "MEAN_MOTION_DOT": "0.00000239",
    "MEAN_MOTION_DDOT": "0",
    "FILE": "3926571",
    "TLE_LINE0": "0 ENVISAT",
    "TLE_LINE1": "1 27386U 02009A   23157.91077203  .00000239  00000-0  92086-4 0  9997",
    "TLE_LINE2": "2 27386  98.2300 128.3355 0001285  89.6275 289.4065 14.38353755114419",
    "OBJECT_ID": "2002-009A",
    "OBJECT_NUMBER": "27386",
    "SEMIMAJOR_AXIS": "7142.080",
    "PERIOD": "100.114",
    "APOGEE": "764.863",
    "PERIGEE": "763.027",
    "DECAYED": "0"
  },
  {
    "COMMENT": "GENERATED VIA SPACETRACK.ORG API",
    "ORIGINATOR": "18 SPCS",
    "NORAD_CAT_ID": "27386",
    "OBJECT_NAME": "ENVISAT",
    "OBJECT_TYPE": "PAYLOAD",
    "CLASSIFICATION_TYPE": "U",
    "INTLDES": "02009A",
    "EPOCH": "2023-06-07 04:29:52",
    "EPOCH_MICROSECONDS": "77120",
    "MEAN_MOTION": "14.38353835",
    "ECCENTRICITY": "0.0001288",
    "INCLINATION": "98.23",
    "RA_OF_ASC_NODE": "128.6007",
    "ARG_OF_PERICENTER": "89.6422",
    "MEAN_ANOMALY": "281.002",
    "EPHEMERIS_TYPE": "0",
    "ELEMENT_SET_NO": "999",
    "REV_AT_EPOCH": "11452",
    "BSTAR": "0.000089653",
    "MEAN_MOTION_DOT": "0.00000232",
    "MEAN_MOTION_DDOT": "0",
    "FILE": "3926751",
    "TLE_LINE0": "0 ENVISAT",
    "TLE_LINE1": "1 27386U 02009A   23158.18740830  .00000232  00000-0  89653-4 0  9999",
    "TLE_LINE2": "2 27386  98.2300 128.6007 0001288  89.6422 281.0020 14.38353835114523",
    "OBJECT_ID": "2002-009A",
    "OBJECT_NUMBER": "27386",
    "SEMIMAJOR_AXIS": "7142.080",
    "PERIOD": "100.114",
    "APOGEE": "764.864",
    "PERIGEE": "763.025",
    "DECAYED": "0"
  },
  {
    "COMMENT": "GENERATED VIA SPACETRACK.ORG API",
    "ORIGINATOR": "18 SPCS",
    "NORAD_CAT_ID": "27386",
    "OBJECT_NAME": "ENVISAT",
    "OBJECT_TYPE": "PAYLOAD",
    "CLASSIFICATION_TYPE": "U",
    "INTLDES": "02009A",
    "EPOCH": "2023-06-07 10:14:05",
    "EPOCH_MICROSECONDS": "853696",
    "MEAN_MOTION": "14.38354079",
    "ECCENTRICITY": "0.0001305",
    "INCLINATION": "98.2301",
    "RA_OF_ASC_NODE": "128.83",
    "ARG_OF_PERICENTER": "90.0592",
    "MEAN_ANOMALY": "77.6765",
    "EPHEMERIS_TYPE": "0",
    "ELEMENT_SET_NO": "999",
    "REV_AT_EPOCH": "11455",
    "BSTAR": "0.000093166",
    "MEAN_MOTION_DOT": "0.00000242",
    "MEAN_MOTION_DDOT": "0",
    "FILE": "3926984",
    "TLE_LINE0": "0 ENVISAT",
    "TLE_LINE1": "1 27386U 02009A   23158.42645664  .00000242  00000-0  93166-4 0  9990",
    "TLE_LINE2": "2 27386  98.2301 128.8300 0001305  90.0592  77.6765 14.38354079114555",
    "OBJECT_ID": "2002-009A",
    "OBJECT_NUMBER": "27386",
    "SEMIMAJOR_AXIS": "7142.079",
    "PERIOD": "100.114",
    "APOGEE": "764.876",
    "PERIGEE": "763.012",
    "DECAYED": "0"
  },
  {
    "COMMENT": "GENERATED VIA SPACETRACK.ORG API",
    "ORIGINATOR": "18 SPCS",
    "NORAD_CAT_ID": "27386",
    "OBJECT_NAME": "ENVISAT",
    "OBJECT_TYPE": "PAYLOAD",
    "CLASSIFICATION_TYPE": "U",
    "INTLDES": "02009A",
    "EPOCH": "2023-06-07 10:14:05",
    "EPOCH_MICROSECONDS": "853696",
    "MEAN_MOTION": "14.38354079",
    "ECCENTRICITY": "0.0001305",
    "INCLINATION": "98.2301",
    "RA_OF_ASC_NODE": "128.83",
    "ARG_OF_PERICENTER": "90.0592",
    "MEAN_ANOMALY": "77.6765",
    "EPHEMERIS_TYPE": "0",
    "ELEMENT_SET_NO": "999",
    "REV_AT_EPOCH": "11448",
    "BSTAR": "0.000093166",
    "MEAN_MOTION_DOT": "0.00000242",
    "MEAN_MOTION_DDOT": "0",
    "FILE": "3927174",
    "TLE_LINE0": "0 ENVISAT",
    "TLE_LINE1": "1 27386U 02009A   23158.42645664  .00000242  00000-0  93166-4 0  9990",
    "TLE_LINE2": "2 27386  98.2301 128.8300 0001305  90.0592  77.6765 14.38354079114487",
    "OBJECT_ID": "2002-009A",
    "OBJECT_NUMBER": "27386",
    "SEMIMAJOR_AXIS": "7142.079",
    "PERIOD": "100.114",
    "APOGEE": "764.876",
    "PERIGEE": "763.012",
    "DECAYED": "0"
  },
  {
    "COMMENT": "GENERATED VIA SPACETRACK.ORG API",
    "ORIGINATOR": "18 SPCS",
    "NORAD_CAT_ID": "27386",
    "OBJECT_NAME": "ENVISAT",
    "OBJECT_TYPE": "PAYLOAD",
    "CLASSIFICATION_TYPE": "U",
    "INTLDES": "02009A",
    "EPOCH": "2023-06-07 16:56:11",
    "EPOCH_MICROSECONDS": "514912",
    "MEAN_MOTION": "14.38354247",
    "ECCENTRICITY": "0.0001308",
    "INCLINATION": "98.2301",
    "RA_OF_ASC_NODE": "129.0978",
    "ARG_OF_PERICENTER": "90.3841",
    "MEAN_ANOMALY": "82.3967",
    "EPHEMERIS_TYPE": "0",
    "ELEMENT_SET_NO": "999",
    "REV_AT_EPOCH": "11459",
    "BSTAR": "0.000095224",
    "MEAN_MOTION_DOT": "0.00000249",
    "MEAN_MOTION_DDOT": "0",
    "FILE": "3927373",
    "TLE_LINE0": "0 ENVISAT",
    "TLE_LINE1": "1 27386U 02009A   23158.70568883  .00000249  00000-0  95224-4 0  9992",
    "TLE_LINE2": "2 27386  98.2301 129.0978 0001308  90.3841  82.3967 14.38354247114590",
    "OBJECT_ID": "2002-009A",
    "OBJECT_NUMBER": "27386",
    "SEMIMAJOR_AXIS": "7142.078",
    "PERIOD": "100.114",
    "APOGEE": "764.877",
    "PERIGEE": "763.009",
    "DECAYED": "0"
  },
  {
    "COMMENT": "GENERATED VIA SPACETRACK.ORG API",
    "ORIGINATOR": "18 SPCS",
    "NORAD_CAT_ID": "27386",
    "OBJECT_NAME": "ENVISAT",
    "OBJECT_TYPE": "PAYLOAD",
    "CLASSIFICATION_TYPE": "U",
    "INTLDES": "02009A",
    "EPOCH": "2023-06-07 21:23:37",
    "EPOCH_MICROSECONDS": "637376",
    "MEAN_MOTION": "14.3835435",
    "ECCENTRICITY": "0.0001318",
    "INCLINATION": "98.2301",
    "RA_OF_ASC_NODE": "129.2758",
    "ARG_OF_PERICENTER": "90.765",
    "MEAN_ANOMALY": "323.1239",
    "EPHEMERIS_TYPE": "0",
    "ELEMENT_SET_NO": "999",
    "REV_AT_EPOCH": "11455",
    "BSTAR": "0.000094675",
    "MEAN_MOTION_DOT": "0.00000247",
    "MEAN_MOTION_DDOT": "0",
    "FILE": "3927436",
    "TLE_LINE0": "0 ENVISAT",
    "TLE_LINE1": "1 27386U 02009A   23158.89140784  .00000247  00000-0  94675-4 0  9995",
    "TLE_LINE2": "2 27386  98.2301 129.2758 0001318  90.7650 323.1239 14.38354350114550",
    "OBJECT_ID": "2002-009A",
    "OBJECT_NUMBER": "27386",
    "SEMIMAJOR_AXIS": "7142.078",
    "PERIOD": "100.114",
    "APOGEE": "764.884",
    "PERIGEE": "763.002",
    "DECAYED": "0"
  },
  {
    "COMMENT": "GENERATED VIA SPACETRACK.ORG API",
    "ORIGINATOR": "18 SPCS",
    "NORAD_CAT_ID": "27386",
    "OBJECT_NAME": "ENVISAT",
    "OBJECT_TYPE": "PAYLOAD",
    "CLASSIFICATION_TYPE": "U",
    "INTLDES": "02009A",
    "EPOCH": "2023-06-07 23:07:36",
    "EPOCH_MICROSECONDS": "635808",
    "MEAN_MOTION": "14.38354406",
    "ECCENTRICITY": "0.0001315",
    "INCLINATION": "98.2301",
    "RA_OF_ASC_NODE": "129.3451",
    "ARG_OF_PERICENTER": "90.6403",
    "MEAN_ANOMALY": "336.9435",
    "EPHEMERIS_TYPE": "0",
    "ELEMENT_SET_NO": "999",
    "REV_AT_EPOCH": "11463",
    "BSTAR": "0.000095136",
    "MEAN_MOTION_DOT": "0.00000248",
    "MEAN_MOTION_DDOT": "0",
    "FILE": "3927502",
    "TLE_LINE0": "0 ENVISAT",
    "TLE_LINE1": "1 27386U 02009A   23158.96361847  .00000248  00000-0  95136-4 0  9992",
    "TLE_LINE2": "2 27386  98.2301 129.3451 0001315  90.6403 336.9435 14.38354406114634",
    "OBJECT_ID": "2002-009A",
    "OBJECT_NUMBER": "27386",
    "SEMIMAJOR_AXIS": "7142.078",
    "PERIOD": "100.114",
    "APOGEE": "764.882",
    "PERIGEE": "763.003",
    "DECAYED": "0"
  }
]